NORAD_CAT_ID,OBJECT_NAME,OBJECT_TYPE,EPOCH,MEAN_MOTION,ECCENTRICITY,INCLINATION,RA_OF_ASC_NODE,ARG_OF_PERICENTER,MEAN_ANOMALY,BSTAR,MEAN_MOTION_DOT,MEAN_MOTION_DDOT,TLE_LINE0,TLE_LINE1,TLE_LINE2,SEMIMAJOR_AXIS,PERIOD,APOGEE,PERIGEE,DECAYED
51801.0,STARLINK-3592,PAYLOAD,2022-07-12 22:00:00,15.08854408,0.000196,53.2137,225.6304,42.4769,108.7391,0.00067671,0.00010502,0.0,0 STARLINK-3592,1 51801U 22017AK  22193.91667824  .00010502  00000-0  67671-3 0  9995,2 51801  53.2137 225.6304 0001960  42.4769 108.7391 15.08854408 22262,6917.8359999999975,95.437,541.057,538.345,0.0
51801.0,STARLINK-3592,PAYLOAD,2022-07-13 14:00:01,15.0884347,0.0002245,53.2136,222.639,40.2275,134.2113,-0.00089253,-0.00014467,0.0,0 STARLINK-3592,1 51801U 22017AK  22194.58334491 -.00014467  00000-0 -89253-3 0  9996,2 51801  53.2136 222.6390 0002245  40.2275 134.2113 15.08843470 22362,6917.87,95.437,541.288,538.182,0.0
51801.0,STARLINK-3592,PAYLOAD,2022-07-13 22:00:00,15.08800713,0.0002024,53.2138,221.1408,42.9082,143.134,0.0024177,0.00038358,0.0,0 STARLINK-3592,1 51801U 22017AK  22194.91667824  .00038358  00000-0  24177-2 0  9998,2 51801  53.2138 221.1408 0002024  42.9082 143.1340 15.08800713  1303,6918.0,95.44,541.266,538.465,0.0
51801.0,STARLINK-3592,PAYLOAD,2022-07-14 14:00:01,15.08819966,0.0002271,53.2138,218.1495,40.0806,169.1022,0.0011049,0.00017331,0.0,0 STARLINK-3592,1 51801U 22017AK  22195.58334491  .00017331  00000-0  11049-2 0  9995,2 51801  53.2138 218.1495 0002271  40.0806 169.1022 15.08819966  1307,6917.941999999999,95.439,541.378,538.236,0.0
51801.0,STARLINK-3592,PAYLOAD,2022-07-14 20:00:01,15.08821213,0.0002099,53.2142,217.0258,43.5504,84.32,0.00053431,8.221e-05,0.0,0 STARLINK-3592,1 51801U 22017AK  22195.83334491  .00008221  00000-0  53431-3 0  9993,2 51801  53.2142 217.0258 0002099  43.5504  84.3200 15.08821213 22552,6917.938,95.439,541.255,538.351,0.0
51801.0,STARLINK-3592,PAYLOAD,2022-07-14 22:00:00,15.08807558,0.0002085,53.2141,216.6513,44.4327,176.3367,0.0025059,0.00039784,0.0,0 STARLINK-3592,1 51801U 22017AK  22195.91667824  .00039784  00000-0  25059-2 0  9993,2 51801  53.2141 216.6513 0002085  44.4327 176.3367 15.08807558  1300,6917.98,95.44,541.2869999999998,538.4019999999998,0.0
51801.0,STARLINK-3592,PAYLOAD,2022-07-15 14:00:01,15.08834319,0.000229,53.2141,213.66,41.3074,202.6227,0.00031769,4.771e-05,0.0,0 STARLINK-3592,1 51801U 22017AK  22196.58334491  .00004771  00000-0  31769-3 0  9992,2 51801  53.2141 213.6600 0002290  41.3074 202.6227 15.08834319  1300,6917.898,95.438,541.347,538.179,0.0
51801.0,STARLINK-3592,PAYLOAD,2022-07-15 22:00:00,15.08814588,0.0002104,53.2143,212.1618,46.1405,209.3885,0.0026757,0.00042524,0.0,0 STARLINK-3592,1 51801U 22017AK  22196.91667824  .00042524  00000-0  26757-2 0  9996,2 51801  53.2143 212.1618 0002104  46.1405 209.3885 15.08814588 22718,6917.958000000001,95.439,541.279,538.368,0.0
51801.0,STARLINK-3592,PAYLOAD,2022-07-16 14:00:01,15.08847275,0.0002285,53.2142,209.1705,42.7217,235.9866,-0.00040688,-6.759999999999999e-05,0.0,0 STARLINK-3592,1 51801U 22017AK  22197.58334491 -.00006760  00000-0 -40688-3 0  9995,2 51801  53.2142 209.1705 0002285  42.7217 235.9866 15.08847275 22817,6917.858,95.437,541.304,538.1419999999998,0.0
51801.0,STARLINK-3592,PAYLOAD,2022-07-16 22:00:00,15.08822358,0.0002114,53.2144,207.6724,48.3663,241.9529,0.0028572,0.00045457,0.0,0 STARLINK-3592,1 51801U 22017AK  22197.91667824  .00045457  00000-0  28572-2 0  9992,2 51801  53.2144 207.6724 0002114  48.3663 241.9529 15.08822358  1300,6917.934,95.439,541.262,538.337,0.0
51801.0,STARLINK-3592,PAYLOAD,2022-07-17 14:00:01,15.08871586,0.0002253,53.2141,204.6811,43.7951,269.7202,-0.0034426,-0.00054711,0.0,0 STARLINK-3592,1 51801U 22017AK  22198.58334491 -.00054711  00000-0 -34426-2 0  9997,2 51801  53.2141 204.6811 0002253  43.7951 269.7202 15.08871586 22962,6917.784000000002,95.436,541.207,538.09,0.0
51801.0,STARLINK-3592,PAYLOAD,2022-07-17 22:00:00,15.08801295,0.0002063,53.2142,203.1831,48.4599,276.6732,0.0028178,0.00044796,0.0,0 STARLINK-3592,1 51801U 22017AK  22198.91667824  .00044796  00000-0  28178-2 0  9990,2 51801  53.2142 203.1831 0002063  48.4599 276.6732 15.08801295  1308,6917.999,95.44,541.2909999999998,538.437,0.0
51801.0,STARLINK-3592,PAYLOAD,2022-07-18 06:00:00,15.08834566,0.0002229,53.2143,201.6883,46.2149,290.4875,-0.0012707,-0.00020452,0.0,0 STARLINK-3592,1 51801U 22017AK  22199.25001157 -.00020452  00000-0 -12707-2 0  9995,2 51801  53.2143 201.6883 0002229  46.2149 290.4875 15.08834566 23066,6917.897,95.438,541.304,538.22,0.0
51801.0,STARLINK-3592,PAYLOAD,2022-07-18 14:00:01,15.08839078,0.0002258,53.214,200.1918,44.2711,304.0044,-0.0013894,-0.00022333,0.0,0 STARLINK-3592,1 51801U 22017AK  22199.58334491 -.00022333  00000-0 -13894-2 0  9999,2 51801  53.2140 200.1918 0002258  44.2711 304.0044 15.08839078  1307,6917.8830000000025,95.438,541.31,538.186,0.0
51801.0,STARLINK-3592,PAYLOAD,2022-07-18 22:00:00,15.08807751,0.0002141,53.2141,198.694,50.2887,309.578,0.002758,0.00043841,0.0,0 STARLINK-3592,1 51801U 22017AK  22199.91667824  .00043841  00000-0  27580-2 0  9997,2 51801  53.2141 198.6940 0002141  50.2887 309.5780 15.08807751 23164,6917.979,95.44,541.325,538.363,0.0
51801.0,STARLINK-3592,PAYLOAD,2022-07-19 14:00:01,15.08849831,0.0002336,53.2141,195.7025,45.7002,337.3294,-0.0015598,-0.00025035,0.0,0 STARLINK-3592,1 51801U 22017AK  22200.58334491 -.00025035  00000-0 -15598-2 0  9997,2 51801  53.2141 195.7025 0002336  45.7002 337.3294 15.08849831 23276,6917.85,95.437,541.331,538.099,0.0
51801.0,STARLINK-3592,PAYLOAD,2022-07-19 22:00:00,15.08810482,0.0002167,53.2155,194.2052,49.5532,345.0802,0.0046549,0.00074519,0.0,0 STARLINK-3592,1 51801U 22017AK  22200.91667824  .00074519  00000-0  46549-2 0  9992,2 51801  53.2155 194.2052 0002167  49.5532 345.0802 15.08810482  1308,6917.971,95.439,541.335,538.336,0.0
51801.0,STARLINK-3592,PAYLOAD,2022-07-20 04:00:00,15.08860776,0.0002358,53.2144,193.0836,49.8266,263.5023,-0.0014035999999999,-0.00022571,0.0,0 STARLINK-3592,1 51801U 22017AK  22201.16667824 -.00022571  00000-0 -14036-2 0  9999,2 51801  53.2144 193.0836 0002358  49.8266 263.5023 15.08860776 23351,6917.816999999999,95.436,541.313,538.0509999999998,0.0
51801.0,STARLINK-3592,PAYLOAD,2022-07-20 14:00:01,15.08871126,0.000241,53.2143,191.2131,47.094,10.7424,-0.0017165,-0.00027527,0.0,0 STARLINK-3592,1 51801U 22017AK  22201.58334491 -.00027527  00000-0 -17165-2 0  9998,2 51801  53.2143 191.2131 0002410  47.0940  10.7424 15.08871126  1305,6917.785,95.436,541.317,537.9830000000002,0.0
51801.0,STARLINK-3592,PAYLOAD,2022-07-20 22:00:01,15.08830152,0.0002435,53.2168,189.7171,48.8358,20.672,0.00067388,0.0001044999999999,0.0,0 STARLINK-3592,1 51801U 22017AK  22201.91668981  .00010450  00000-0  67388-3 0  9997,2 51801  53.2168 189.7171 0002435  48.8358  20.6720 15.08830152  1300,6917.91,95.438,541.46,538.091,0.0
51801.0,STARLINK-3592,PAYLOAD,2022-07-21 06:00:00,15.08840499,0.0002449,53.2146,188.2207,48.1606,32.8725,-0.00071472,-0.00011646,0.0,0 STARLINK-3592,1 51801U 22017AK  22202.25001157 -.00011646  00000-0 -71472-3 0  9990,2 51801  53.2146 188.2207 0002449  48.1606  32.8725 15.08840499 23527,6917.879,95.438,541.438,538.05,0.0
51801.0,STARLINK-3592,PAYLOAD,2022-07-21 14:00:01,15.08854841,0.0002423999999999,53.2146,186.7238,47.4253,45.2549,-0.0017675,-0.00028321,0.0,0 STARLINK-3592,1 51801U 22017AK  22202.58335648 -.00028321  00000-0 -17675-2 0  9993,2 51801  53.2146 186.7238 0002424  47.4253  45.2549 15.08854841  1307,6917.835,95.437,541.377,538.023,0.0
51801.0,STARLINK-3592,PAYLOAD,2022-07-21 22:00:00,15.08833634,0.0002340999999999,53.2149,185.2261,52.7968,51.4243,0.0019812,0.00031379,0.0,0 STARLINK-3592,1 51801U 22017AK  22202.91667824  .00031379  00000-0  19812-2 0  9994,2 51801  53.2149 185.2261 0002341  52.7968  51.4243 15.08833634  1307,6917.9,95.438,541.384,538.145,0.0
51801.0,STARLINK-3592,PAYLOAD,2022-07-22 06:00:00,15.0885199,0.0002504,53.2148,183.7315,49.3396,66.487,-0.00033689,-5.648e-05,0.0,0 STARLINK-3592,1 51801U 22017AK  22203.25001157 -.00005648  00000-0 -33689-3 0  9994,2 51801  53.2148 183.7315 0002504  49.3396  66.4870 15.08851990 23678,6917.844,95.437,541.441,537.977,0.0
51801.0,STARLINK-3592,PAYLOAD,2022-07-22 22:00:00,15.08828767,0.0002278999999999,53.215,180.7369,53.3263,85.7172,0.0017067,0.00026971,0.0,0 STARLINK-3592,1 51801U 22017AK  22203.91667824  .00026971  00000-0  17067-2 0  9997,2 51801  53.2150 180.7369 0002279  53.3263  85.7172 15.08828767  1305,6917.915,95.438,541.356,538.203,0.0
51801.0,STARLINK-3592,PAYLOAD,2022-07-23 14:00:01,15.08843868,0.0002299,53.2146,177.745,48.5856,113.7061,-0.0031529,-0.00050125,0.0,0 STARLINK-3592,1 51801U 22017AK  22204.58335648 -.00050125  00000-0 -31529-2 0  9996,2 51801  53.2146 177.7450 0002299  48.5856 113.7061 15.08843868 23877,6917.869000000002,95.437,541.3240000000002,538.143,0.0
51801.0,STARLINK-3592,PAYLOAD,2022-07-23 22:00:00,15.08820167,0.0002189999999999,53.2149,176.2479,53.6302,120.1796,0.0013323,0.00020968,0.0,0 STARLINK-3592,1 51801U 22017AK  22204.91667824  .00020968  00000-0  13323-2 0  9999,2 51801  53.2149 176.2479 0002190  53.6302 120.1796 15.08820167  1306,6917.941,95.439,541.321,538.2909999999998,0.0
51801.0,STARLINK-3592,PAYLOAD,2022-07-24 14:00:01,15.08845217,0.0002275,53.2143,173.2558,50.6612,146.3013,-0.0019936,-0.00031882,0.0,0 STARLINK-3592,1 51801U 22017AK  22205.58334491 -.00031882  00000-0 -19936-2 0  9999,2 51801  53.2143 173.2558 0002275  50.6612 146.3013 15.08845217 24029,6917.864000000001,95.437,541.303,538.156,0.0
51801.0,STARLINK-3592,PAYLOAD,2022-07-24 22:00:00,15.08834779,0.000222,53.2145,171.7589,55.9774,152.5705,0.00081034,0.0001262999999999,0.0,0 STARLINK-3592,1 51801U 22017AK  22205.91667824  .00012630  00000-0  81034-3 0  9992,2 51801  53.2145 171.7589 0002220  55.9774 152.5705 15.08834779  1309,6917.896,95.438,541.297,538.226,0.0
